NORAD_CAT_ID,OBJECT_NAME,OBJECT_TYPE,EPOCH,MEAN_MOTION,ECCENTRICITY,INCLINATION,RA_OF_ASC_NODE,ARG_OF_PERICENTER,MEAN_ANOMALY,BSTAR,MEAN_MOTION_DOT,MEAN_MOTION_DDOT,TLE_LINE0,TLE_LINE1,TLE_LINE2,SEMIMAJOR_AXIS,PERIOD,APOGEE,PERIGEE,DECAYED
52364.0,STARLINK-3820,PAYLOAD,2022-09-12 22:00:00,15.08844715,0.0001905,53.2144,147.3068,41.5079,320.7133,-0.00061139,-0.00010007,0.0,0 STARLINK-3820,1 52364U 22045AK  22255.91667824 -.00010007  00000-0 -61139-3 0  9995,2 52364  53.2144 147.3068 0001905  41.5079 320.7133 15.08844715  1307,6917.866,95.437,541.049,538.413,0.0
52364.0,STARLINK-3820,PAYLOAD,2022-09-13 14:00:01,15.08822064,0.0001708,53.2143,144.3125,43.1606,342.2681,0.0017737999999999,0.00028041,0.0,0 STARLINK-3820,1 52364U 22045AK  22256.58334491  .00028041  00000-0  17738-2 0  9990,2 52364  53.2143 144.3125 0001708  43.1606 342.2681 15.08822064  1302,6917.935,95.439,540.982,538.619,0.0
52364.0,STARLINK-3820,PAYLOAD,2022-09-13 16:00:00,15.08843138,0.0001749,53.2147,143.9376,45.6667,72.6519,-0.00057399,-9.412e-05,0.0,0 STARLINK-3820,1 52364U 22045AK  22256.66667824 -.00009412  00000-0 -57399-3 0  9999,2 52364  53.2147 143.9376 0001749  45.6667  72.6519 15.08843138 23738,6917.871,95.437,540.946,538.526,0.0
52364.0,STARLINK-3820,PAYLOAD,2022-09-13 22:00:00,15.08833395,0.0001925,53.2143,142.8174,43.0023,354.0103,-0.00092798,-0.00015024,0.0,0 STARLINK-3820,1 52364U 22045AK  22256.91667824 -.00015024  00000-0 -92798-3 0  9995,2 52364  53.2143 142.8174 0001925  43.0023 354.0103 15.08833395  1301,6917.901,95.438,541.097,538.434,0.0
52364.0,STARLINK-3820,PAYLOAD,2022-09-14 14:00:01,15.08807737,0.0001774999999999,53.214,139.8229,46.1458,14.0365,0.0035069,0.00055918,0.0,0 STARLINK-3820,1 52364U 22045AK  22257.58334491  .00055918  00000-0  35069-2 0  9991,2 52364  53.2140 139.8229 0001775  46.1458  14.0365 15.08807737  1308,6917.979,95.44,541.072,538.616,0.0
52364.0,STARLINK-3820,PAYLOAD,2022-09-14 22:00:00,15.08858841,0.0001918,53.214,138.3281,43.1058,28.6552,-0.0027224,-0.00043378,0.0,0 STARLINK-3820,1 52364U 22045AK  22257.91667824 -.00043378  00000-0 -27224-2 0  9990,2 52364  53.2140 138.3281 0001918  43.1058  28.6552 15.08858841 23925,6917.823,95.436,541.015,538.361,0.0
52364.0,STARLINK-3820,PAYLOAD,2022-09-15 14:00:01,15.0881884,0.0001696,53.2136,135.3336,45.4625,49.50100000000001,0.0033183,0.00052889,0.0,0 STARLINK-3820,1 52364U 22045AK  22258.58334491  .00052889  00000-0  33183-2 0  9991,2 52364  53.2136 135.3336 0001696  45.4625  49.5010 15.08818840  1300,6917.945,95.439,540.9830000000002,538.637,0.0
52364.0,STARLINK-3820,PAYLOAD,2022-09-15 18:21:02,15.08837169,0.0001911,53.216,134.5225,46.3422,313.7728,4.9454e-05,4.99e-06,0.0,0 STARLINK-3820,1 52364U 22045AK  22258.76461431  .00000499  00000-0  49454-4 0  9996,2 52364  53.2160 134.5225 0001911  46.3422 313.7728 15.08837169 24054,6917.889,95.438,541.076,538.432,0.0
52364.0,STARLINK-3820,PAYLOAD,2022-09-15 23:07:12,15.08838512,0.0001879,53.2161,133.6304,46.5234,313.5914,5.9023e-05,6.51e-06,0.0,0 STARLINK-3820,1 52364U 22045AK  22258.96333337  .00000651  00000-0  59023-4 0  9994,2 52364  53.2161 133.6304 0001879  46.5234 313.5914 15.08838512 24080,6917.885,95.438,541.05,538.45,0.0
52364.0,STARLINK-3820,PAYLOAD,2022-09-16 00:42:35,15.08840279,0.0001883,53.216,133.3329,46.7964,313.3185,7.2715e-05,8.69e-06,0.0,0 STARLINK-3820,1 52364U 22045AK  22259.02957187  .00000869  00000-0  72715-4 0  9991,2 52364  53.2160 133.3329 0001883  46.7964 313.3185 15.08840279 24092,6917.88,95.438,541.047,538.442,0.0
52364.0,STARLINK-3820,PAYLOAD,2022-09-16 18:11:50,15.08833246,0.0001935,53.2155,130.0611,46.7859,313.3294,-1.5538e-05,-5.35e-06,0.0,0 STARLINK-3820,1 52364U 22045AK  22259.75822170 -.00000535  00000-0 -15538-4 0  9996,2 52364  53.2155 130.0611 0001935  46.7859 313.3294 15.08833246 24205,6917.901,95.438,541.105,538.427,0.0
52364.0,STARLINK-3820,PAYLOAD,2022-09-17 02:08:46,15.08827097,0.000185,53.2155,128.57399999999998,45.8271,314.2873,-7.361e-05,-1.459e-05,0.0,0 STARLINK-3820,1 52364U 22045AK  22260.08942893 -.00001459  00000-0 -73610-4 0  9990,2 52364  53.2155 128.5740 0001850  45.8271 314.2873 15.08827097 24259,6917.92,95.438,541.065,538.505,0.0
52364.0,STARLINK-3820,PAYLOAD,2022-09-17 08:30:19,15.08829255,0.0001904,53.2155,127.3843,45.0457,315.0689,-5.3265e-05,-1.136e-05,0.0,0 STARLINK-3820,1 52364U 22045AK  22260.35438870 -.00001136  00000-0 -53265-4 0  9991,2 52364  53.2155 127.3843 0001904  45.0457 315.0689 15.08829255 24294,6917.913000000001,95.438,541.095,538.461,0.0
52364.0,STARLINK-3820,PAYLOAD,2022-09-17 21:13:24,15.0883646,0.0001901,53.2154,125.005,44.978,315.1366,-1.6555e-05,-5.52e-06,0.0,0 STARLINK-3820,1 52364U 22045AK  22260.88430578 -.00000552  00000-0 -16555-4 0  9998,2 52364  53.2154 125.0050 0001901  44.9780 315.1366 15.08836460 24370,6917.891,95.438,541.071,538.441,0.0
52364.0,STARLINK-3820,PAYLOAD,2022-09-18 03:34:56,15.08839212,0.0001891,53.2152,123.8151,45.4217,314.6929,6.6101e-06,-1.83e-06,0.0,0 STARLINK-3820,1 52364U 22045AK  22261.14926369 -.00000183  00000-0  66101-5 0  9998,2 52364  53.2152 123.8151 0001891  45.4217 314.6929 15.08839212 24417,6917.8830000000025,95.438,541.056,538.44,0.0
52364.0,STARLINK-3820,PAYLOAD,2022-09-18 19:28:47,15.08839488,0.0001974,53.2153,120.8414,45.9438,314.1716,0.00018367,2.636e-05,0.0,0 STARLINK-3820,1 52364U 22045AK  22261.81165752  .00002636  00000-0  18367-3 0  9996,2 52364  53.2153 120.8414 0001974  45.9438 314.1716 15.08839488 24514,6917.882,95.438,541.113,538.381,0.0
52364.0,STARLINK-3820,PAYLOAD,2022-09-18 21:04:10,15.088407,0.0001986999999999,53.2152,120.544,46.2811,313.8345,0.00019305,2.786e-05,0.0,0 STARLINK-3820,1 52364U 22045AK  22261.87789657  .00002786  00000-0  19305-3 0  9997,2 52364  53.2152 120.5440 0001987  46.2811 313.8345 15.08840700 24526,6917.878000000002,95.438,541.118,538.369,0.0
52364.0,STARLINK-3820,PAYLOAD,2022-09-19 01:50:19,15.08840994,0.0001999,53.215,119.6517,46.4168,313.699,0.00018473,2.653e-05,0.0,0 STARLINK-3820,1 52364U 22045AK  22262.07661658  .00002653  00000-0  18473-3 0  9998,2 52364  53.2150 119.6517 0001999  46.4168 313.6990 15.08840994 24550,6917.877,95.437,541.125,538.359,0.0
52364.0,STARLINK-3820,PAYLOAD,2022-09-19 17:44:11,15.08841003,0.0002099,53.2145,116.6785,47.7385,312.3785,8.1015e-05,1.001e-05,0.0,0 STARLINK-3820,1 52364U 22045AK  22262.73902026  .00001001  00000-0  81015-4 0  9997,2 52364  53.2145 116.6785 0002099  47.7385 312.3785 15.08841003 24656,6917.877,95.437,541.194,538.29,0.0
52364.0,STARLINK-3820,PAYLOAD,2022-09-20 00:05:44,15.08840492,0.0002153,53.2146,115.4894,45.8855,314.2314,-5.3431e-05,-1.139e-05,0.0,0 STARLINK-3820,1 52364U 22045AK  22263.00398512 -.00001139  00000-0 -53431-4 0  9992,2 52364  53.2146 115.4894 0002153  45.8855 314.2314 15.08840492 24691,6917.879,95.438,541.2330000000002,538.254,0.0
52364.0,STARLINK-3820,PAYLOAD,2022-09-20 15:59:35,15.08839689,0.0001935,53.2154,112.5141,46.7679,313.3474,-4.0337e-05,-9.3e-06,0.0,0 STARLINK-3820,1 52364U 22045AK  22263.66638397 -.00000930  00000-0 -40337-4 0  9991,2 52364  53.2154 112.5141 0001935  46.7679 313.3474 15.08839689 24798,6917.880999999999,95.438,541.085,538.408,0.0
52364.0,STARLINK-3820,PAYLOAD,2022-09-21 01:31:53,15.08847814,0.0002070999999999,53.215,110.7304,47.8766,312.2401,-2.4762e-05,-6.82e-06,0.0,0 STARLINK-3820,1 52364U 22045AK  22264.06381779 -.00000682  00000-0 -24762-4 0  9993,2 52364  53.2150 110.7304 0002071  47.8766 312.2401 15.08847814 24850,6917.857,95.437,541.154,538.289,0.0
52364.0,STARLINK-3820,PAYLOAD,2022-09-21 15:50:23,15.08834489,0.0002406,53.2141,108.0551,49.0923,311.0278,-6.609e-05,-1.34e-05,0.0,0 STARLINK-3820,1 52364U 22045AK  22264.65998872 -.00001340  00000-0 -66090-4 0  9998,2 52364  53.2141 108.0551 0002406  49.0923 311.0278 15.08834489 24948,6917.897,95.438,541.427,538.0980000000002,0.0
52364.0,STARLINK-3820,PAYLOAD,2022-09-22 06:08:51,15.08833173,0.000278,53.2141,105.3795,46.7838,313.3386,-1.451e-05,-5.19e-06,0.0,0 STARLINK-3820,1 52364U 22045AK  22265.25615108 -.00000519  00000-0 -14510-4 0  9990,2 52364  53.2141 105.3795 0002780  46.7838 313.3386 15.08833173 25037,6917.901,95.438,541.689,537.8430000000002,0.0
52364.0,STARLINK-3820,PAYLOAD,2022-09-22 18:51:56,15.08838798,0.0001950999999999,53.2162,102.999,49.8908,310.2255,2.2281e-06,-2.53e-06,0.0,0 STARLINK-3820,1 52364U 22045AK  22265.78606505 -.00000253  00000-0  22281-5 0  9998,2 52364  53.2162 102.9990 0001951  49.8908 310.2255 15.08838798 25119,6917.884,95.438,541.099,538.399,0.0
52364.0,STARLINK-3820,PAYLOAD,2022-09-22 23:38:06,15.08816328,0.000213,53.2161,102.106,44.1863,315.9299,0.00014831,2.071e-05,0.0,0 STARLINK-3820,1 52364U 22045AK  22265.98479409  .00002071  00000-0  14831-3 0  9990,2 52364  53.2161 102.1060 0002130  44.1863 315.9299 15.08816328 25144,6917.953,95.439,541.2909999999998,538.344,0.0
52364.0,STARLINK-3820,PAYLOAD,2022-09-23 20:18:06,15.08836861,0.0002037,53.2157,98.241,45.709,314.4069,1.8539e-05,7e-08,0.0,0 STARLINK-3820,1 52364U 22045AK  22266.84591054  .00000007  00000-0  18539-4 0  9994,2 52364  53.2157  98.2410 0002037  45.7090 314.4069 15.08836861 25275,6917.89,95.438,541.164,538.346,0.0
52364.0,STARLINK-3820,PAYLOAD,2022-09-23 23:28:52,15.08839398,0.0001952,53.2157,97.6456,49.9873,310.1291,4.0711e-05,3.6000000000000007e-06,0.0,0 STARLINK-3820,1 52364U 22045AK  22266.97838809  .00000360  00000-0  40711-4 0  9999,2 52364  53.2157  97.6456 0001952  49.9873 310.1291 15.08839398 25298,6917.882,95.438,541.0980000000002,538.3969999999998,0.0
52364.0,STARLINK-3820,PAYLOAD,2022-09-24 20:08:54,15.08839318,0.0002043,53.216,93.7806,50.8021,309.3152,-0.00010261,-1.921e-05,0.0,0 STARLINK-3820,1 52364U 22045AK  22267.83951536 -.00001921  00000-0 -10261-3 0  9990,2 52364  53.2160  93.7806 0002043  50.8021 309.3152 15.08839318 25429,6917.882,95.438,541.161,538.3340000000002,0.0
